OBJECT_NAME,OBJECT_ID,EPOCH,MEAN_MOTION,ECCENTRICITY,INCLINATION,RA_OF_ASC_NODE,ARG_OF_PERICENTER,MEAN_ANOMALY,EPHEMERIS_TYPE,CLASSIFICATION_TYPE,NORAD_CAT_ID,ELEMENT_SET_NO,REV_AT_EPOCH,BSTAR,MEAN_MOTION_DOT,MEAN_MOTION_DDOT
OSCAR 7 (AO-7),1974-089B,2026-07-16T06:28:58.258272,12.53698595,.0012657,101.9906,210.8198,76.3529,349.4249,0,U,7530,999,36416,.45074448E-4,-.39E-6,0
PHASE 3B (AO-10),1983-058B,2026-07-13T02:29:46.528800,2.05872336,.60022234,25.9345,215.2934,122.7887,309.2966,0,U,14129,999,29602,0,-.187E-5,0
UOSAT 2 (UO-11),1984-021B,2026-07-15T21:08:41.691840,14.90849797,.0009246,97.8076,162.1394,89.5955,270.6323,0,U,14781,999,26140,.57146E-4,.507E-5,0
LUSAT (LO-19),1990-005G,2026-07-15T23:54:45.835776,14.34130880,.00125602,98.8847,219.5949,119.2516,240.9925,0,U,20442,999,90652,.28308634E-4,.33E-6,0
EYESAT A (AO-27),1993-061C,2026-07-16T03:47:34.094400,14.30949207,.00087089,98.6867,264.5590,23.1959,336.9615,0,U,22825,999,71114,.31913307E-4,.39E-6,0
ITAMSAT (IO-26),1993-061D,2026-07-16T04:46:07.720608,14.31376828,.00089004,98.6815,264.5201,6.4608,353.6688,0,U,22826,999,71146,.31418149E-4,.39E-6,0
RADIO ROSTO (RS15),1994-085A,2026-07-16T04:56:38.541696,11.27583520,.01569523,64.8149,256.2858,358.5255,1.5187,0,U,23439,999,29917,.92423134E-4,-.39E-6,0
JAS-2 (FO-29),1996-046B,2026-07-16T03:28:41.415456,13.53275760,.035032,98.5219,42.0475,21.4805,340.0632,0,U,24278,999,47708,.3166237E-4,-.4E-7,0
TECHSAT 1B (GO-32),1998-043D,2026-07-15T22:25:15.580704,14.24433441,.0002197,99.0086,190.4201,113.5065,246.6344,0,U,25397,999,45542,.2147E-4,.3E-7,0
ISS (ZARYA),1998-067A,2026-07-16T05:13:55.837632,15.49021242,.00067484,51.6313,156.4232,301.4056,58.6272,0,U,25544,999,57625,.72346184E-4,.354E-4,0
PCSAT (NO-44),2001-043C,2026-07-16T05:09:27.198432,14.31965203,.00059182,67.0495,169.1920,266.6966,93.3459,0,U,26931,999,29460,.36338752E-4,.14E-6,0
SAUDISAT 1C (SO-50),2002-058C,2026-07-16T06:51:06.991776,14.83099465,.00744899,64.5519,38.9516,257.0714,102.2066,0,U,27607,999,26877,.59480408E-4,.351E-5,0
CUTE-1 (CO-55),2003-031E,2026-07-15T23:30:01.451808,14.24351837,.00108408,98.6744,205.1765,100.6537,259.5863,0,U,27844,999,19577,.75468608E-4,.131E-5,0
CUBESAT XI-IV (CO-57),2003-031J,2026-07-15T23:34:14.618496,14.23634777,.00105663,98.6774,204.8688,117.3488,242.8767,0,U,27848,999,19547,.65012077E-4,.105E-5,0
MOZHAETS 4 (RS22),2003-042A,2026-07-16T07:07:35.262624,14.73513558,.00113297,98.3468,22.4793,169.7728,1.7111,0,U,27939,999,21983,.5670929E-5,-.17E-6,0
CUBESAT XI-V,2005-043F,2026-07-15T22:32:39.794208,14.72703396,.0015281,98.3016,353.1708,113.0525,247.2294,0,U,28895,999,10598,.10996E-3,.649E-5,0
CUTE-1.7+APD II (CO-65),2008-021C,2026-07-16T05:09:52.910208,15.09706206,.00069404,97.8296,179.2460,295.4791,64.5719,0,U,32785,999,98957,.15219542E-3,.2386E-4,0
SEEDS II (CO-66),2008-021J,2026-07-15T23:33:57.844800,15.33682976,.00031554,97.7522,196.2767,154.4118,205.7280,0,U,32791,999,99170,.30950416E-3,.9999E-4,0
YUBILEINY (RS30),2008-025A,2026-07-16T07:29:17.155968,12.43181056,.00186256,82.5061,337.3215,246.3852,113.5273,0,U,32953,999,82331,.52946291E-3,.83E-6,0
KKS-1 (KISEKI),2009-002H,2026-07-16T06:23:35.027232,14.83190469,.0007523,98.1173,120.1693,185.2462,174.8673,0,U,33499,999,94050,.74530731E-4,.553E-5,0
SWISSCUBE,2009-051B,2026-07-16T04:15:03.260448,14.62531689,.00078879,98.4006,105.5678,116.4429,243.7582,0,U,35932,999,89339,.97132642E-4,.443E-5,0
BEESAT-1,2009-051C,2026-07-15T07:29:04.477632,14.61761931,.0006132,98.3935,104.2639,129.5089,230.6654,0,U,35933,999,89329,.85522677E-4,.377E-5,0
ITUPSAT1,2009-051E,2026-07-15T04:34:09.441120,14.60478742,.00080864,98.4018,103.3025,143.1681,217.0076,0,U,35935,999,89282,.82053832E-4,.349E-5,0
XIWANG-1 (HOPE-1),2009-072B,2026-07-16T06:36:46.852992,13.16440532,.00075429,100.4039,150.6454,162.2633,197.8745,0,U,36122,999,79683,.18259308E-4,-.37E-6,0
O/OREOS (USA 219),2010-062C,2026-07-15T22:11:59.250048,14.93853123,.0013999,71.9698,15.2352,3.6363,356.4907,0,U,37224,999,12093,.99967E-4,.1E-4,0
JUGNU,2011-058B,2026-07-16T04:15:50.795136,14.13783599,.00185921,19.9596,132.2939,37.2294,97.4128,0,U,37839,999,76313,.36708441E-4,.337E-5,0
SRMSAT,2011-058D,2026-07-16T06:36:22.554720,14.11581223,.00117264,19.9709,243.4089,163.0492,264.2388,0,U,37841,999,76193,.35417231E-4,.33E-5,0
STRAND-1,2013-009E,2026-07-16T07:07:40.404288,14.37179203,.00094619,98.3935,16.8169,138.0921,222.0991,0,U,39090,999,70124,.5190816E-4,.112E-5,0
ZACUBE-1 (TSHEPISOSAT),2013-066B,2026-07-16T06:25:27.747264,15.01331206,.00440718,97.8007,159.7476,151.7764,208.5862,0,U,39417,999,68509,.91041302E-4,.1132E-4,0
GOMX-1,2013-066Q,2026-07-16T06:15:19.428192,14.69543802,.01281715,97.6464,35.8884,344.7805,14.9561,0,U,39430,999,67418,.99114136E-4,.614E-5,0
