OSCAR 7 (AO-7)          
1 07530U 74089B   26197.27011873 -.00000039  00000+0  45074-4 0  9993
2 07530 101.9906 210.8198 0012657  76.3529 349.4249 12.53698595364163
PHASE 3B (AO-10)        
1 14129U 83058B   26194.10401075 -.00000187  00000+0  00000+0 0  9996
2 14129  25.9345 215.2934 6002223 122.7887 309.2966  2.05872336296023
UOSAT 2 (UO-11)         
1 14781U 84021B   26196.88103810  .00000507  00000+0  57146-4 0  9997
2 14781  97.8076 162.1394 0009246  89.5955 270.6323 14.90849797261402
LUSAT (LO-19)           
1 20442U 90005G   26196.99636384  .00000033  00000+0  28309-4 0  9999
2 20442  98.8847 219.5949 0012560 119.2516 240.9925 14.34130880906521
EYESAT A (AO-27)        
1 22825U 93061C   26197.15803350  .00000039  00000+0  31913-4 0  9990
2 22825  98.6867 264.5590 0008708  23.1959 336.9615 14.30949207711144
ITAMSAT (IO-26)         
1 22826U 93061D   26197.19870047  .00000039  00000+0  31418-4 0  9992
2 22826  98.6815 264.5201 0008900   6.4608 353.6688 14.31376828711461
RADIO ROSTO (RS15)      
1 23439U 94085A   26197.20600164 -.00000039  00000+0  92423-4 0  9997
2 23439  64.8149 256.2858 0156952 358.5255   1.5187 11.27583520299176
JAS-2 (FO-29)           
1 24278U 96046B   26197.14492379 -.00000004  00000+0  31662-4 0  9998
2 24278  98.5219  42.0475 0350320  21.4805 340.0632 13.53275760477087
TECHSAT 1B (GO-32)      
1 25397U 98043D   26196.93420811  .00000003  00000+0  21470-4 0  9992
2 25397  99.0086 190.4201 0002197 113.5065 246.6344 14.24433441455426
ISS (ZARYA)             
1 25544U 98067A   26197.21800738  .00003540  00000+0  72346-4 0  9991
2 25544  51.6313 156.4232 0006748 301.4056  58.6272 15.49021242576253
PCSAT (NO-44)           
1 26931U 01043C   26197.21489813  .00000014  00000+0  36339-4 0  9992
2 26931  67.0495 169.1920 0005918 266.6966  93.3459 14.31965203294604
SAUDISAT 1C (SO-50)     
1 27607U 02058C   26197.28549759  .00000351  00000+0  59480-4 0  9999
2 27607  64.5519  38.9516 0074489 257.0714 102.2066 14.83099465268770
CUTE-1 (CO-55)          
1 27844U 03031E   26196.97918347  .00000131  00000+0  75469-4 0  9993
2 27844  98.6744 205.1765 0010840 100.6537 259.5863 14.24351837195771
CUBESAT XI-IV (CO-57)   
1 27848U 03031J   26196.98211364  .00000105  00000+0  65012-4 0  9997
2 27848  98.6774 204.8688 0010566 117.3488 242.8767 14.23634777195474
MOZHAETS 4 (RS22)       
1 27939U 03042A   26197.29693591 -.00000017  00000+0  56709-5 0  9998
2 27939  98.3468  22.4793 0011329 169.7728   1.7111 14.73513558219839
CUBESAT XI-V            
1 28895U 05043F   26196.93934947  .00000649  00000+0  10996-3 0  9992
2 28895  98.3016 353.1708 0015281 113.0525 247.2294 14.72703396105987
CUTE-1.7+APD II (CO-65) 
1 32785U 08021C   26197.21519572  .00002386  00000+0  15220-3 0  9994
2 32785  97.8296 179.2460 0006940 295.4791  64.5719 15.09706206989579
SEEDS II (CO-66)        
1 32791U 08021J   26196.98191950  .00009999  00000+0  30950-3 0  9994
2 32791  97.7522 196.2767 0003155 154.4118 205.7280 15.33682976991702
YUBILEINY (RS30)        
1 32953U 08025A   26197.31200412  .00000083  00000+0  52946-3 0  9994
2 32953  82.5061 337.3215 0018625 246.3852 113.5273 12.43181056823312
KKS-1 (KISEKI)          
1 33499U 09002H   26197.26637763  .00000553  00000+0  74531-4 0  9990
2 33499  98.1173 120.1693 0007523 185.2462 174.8673 14.83190469940505
SWISSCUBE               
1 35932U 09051B   26197.17712107  .00000443  00000+0  97133-4 0  9995
2 35932  98.4006 105.5678 0007887 116.4429 243.7582 14.62531689893398
BEESAT-1                
1 35933U 09051C   26196.31185738  .00000377  00000+0  85523-4 0  9991
2 35933  98.3935 104.2639 0006132 129.5089 230.6654 14.61761931893299
ITUPSAT1                
1 35935U 09051E   26196.19038705  .00000349  00000+0  82054-4 0  9995
2 35935  98.4018 103.3025 0008086 143.1681 217.0076 14.60478742892822
XIWANG-1 (HOPE-1)       
1 36122U 09072B   26197.27554228 -.00000037  00000+0  18259-4 0  9991
2 36122 100.4039 150.6454 0007542 162.2633 197.8745 13.16440532796832
O/OREOS (USA 219)       
1 37224U 10062C   26196.92499132  .00001000  00000+0  99967-4 0  9994
2 37224  71.9698  15.2352 0013999   3.6363 356.4907 14.93853123120938
JUGNU                   
1 37839U 11058B   26197.17767124  .00000337  00000+0  36708-4 0  9995
2 37839  19.9596 132.2939 0018592  37.2294  97.4128 14.13783599763133
SRMSAT                  
1 37841U 11058D   26197.27526105  .00000330  00000+0  35417-4 0  9990
2 37841  19.9709 243.4089 0011726 163.0492 264.2388 14.11581223761939
STRAND-1                
1 39090U 13009E   26197.29699542  .00000112  00000+0  51908-4 0  9995
2 39090  98.3935  16.8169 0009461 138.0921 222.0991 14.37179203701241
ZACUBE-1 (TSHEPISOSAT)  
1 39417U 13066B   26197.26768226  .00001132  00000+0  91041-4 0  9999
2 39417  97.8007 159.7476 0044071 151.7764 208.5862 15.01331206685094
GOMX-1                  
1 39430U 13066Q   26197.26064153  .00000614  00000+0  99114-4 0  9995
2 39430  97.6464  35.8884 0128171 344.7805  14.9561 14.69543802674188
